[{"id":6799,"code":"OX27","name":"Hethe","uppercaseName":"HETHE","parentCode":null,"division":"Cherwell","pop":0,"postcode":"OX27","longitude":"-1.14852000","latitude":"51.93520000","googleLocalized":false,"division2":"CHERWELL","slugName":"ox27-hethe"},{"id":6971,"code":"PE7","name":"Yaxley","uppercaseName":"YAXLEY","parentCode":null,"division":"Peterborough","pop":0,"postcode":"PE7","longitude":"-0.20382400","latitude":"52.54070000","googleLocalized":false,"division2":"PETERBOROUGH","slugName":"pe7-yaxley"},{"id":7035,"code":"PE10","name":"Bulby","uppercaseName":"BULBY","parentCode":null,"division":"South Kesteven","pop":0,"postcode":"PE10","longitude":"-0.37743200","latitude":"52.77470000","googleLocalized":false,"division2":"SOUTH KESTEVEN","slugName":"pe10-bulby"},{"id":7208,"code":"PE28","name":"Grafham","uppercaseName":"GRAFHAM","parentCode":null,"division":"Huntingdonshire","pop":0,"postcode":"PE28","longitude":"-0.18908200","latitude":"52.35780000","googleLocalized":false,"division2":"HUNTINGDONSHIRE","slugName":"pe28-grafham"},{"id":7456,"code":"PL22","name":"Boconnoc","uppercaseName":"BOCONNOC","parentCode":null,"division":"Cornwall","pop":0,"postcode":"PL22","longitude":"-4.65329000","latitude":"50.40370000","googleLocalized":false,"division2":"CORNWALL","slugName":"pl22-boconnoc"},{"id":7520,"code":"PL95","name":"Non-geographic","uppercaseName":"NON-GEOGRAPHIC","parentCode":null,"division":"Plymouth","pop":0,"postcode":"PL95","longitude":"-4.10443000","latitude":"50.36660000","googleLocalized":false,"division2":"PLYMOUTH","slugName":"pl95-non-geographic"},{"id":7583,"code":"PR1","name":"Penwortham","uppercaseName":"PENWORTHAM","parentCode":null,"division":"Preston","pop":0,"postcode":"PR1","longitude":"-2.70198000","latitude":"53.75790000","googleLocalized":false,"division2":"PRESTON","slugName":"pr1-penwortham"},{"id":7651,"code":"PR6","name":"Adlington","uppercaseName":"ADLINGTON","parentCode":null,"division":"Chorley","pop":0,"postcode":"PR6","longitude":"-2.61408000","latitude":"53.66510000","googleLocalized":false,"division2":"CHORLEY","slugName":"pr6-adlington"},{"id":7952,"code":"S5","name":"Southey Green","uppercaseName":"SOUTHEY GREEN","parentCode":null,"division":"Sheffield","pop":0,"postcode":"S5","longitude":"-1.46216000","latitude":"53.42220000","googleLocalized":false,"division2":"SHEFFIELD","slugName":"s5-southey-green"},{"id":8124,"code":"S66","name":"Maltby","uppercaseName":"MALTBY","parentCode":null,"division":"Rotherham","pop":0,"postcode":"S66","longitude":"-1.25159000","latitude":"53.42150000","googleLocalized":false,"division2":"ROTHERHAM","slugName":"s66-maltby"},{"id":8328,"code":"SA36","name":"Hermon","uppercaseName":"HERMON","parentCode":null,"division":"Pembrokeshire","pop":0,"postcode":"SA36","longitude":"-4.60863000","latitude":"51.95780000","googleLocalized":false,"division2":"PEMBROKESHIRE","slugName":"sa36-hermon"},{"id":8599,"code":"SL4","name":"Eton","uppercaseName":"ETON","parentCode":null,"division":"Bracknell Forest","pop":0,"postcode":"SL4","longitude":"-0.62411600","latitude":"51.47660000","googleLocalized":false,"division2":"BRACKNELL FOREST","slugName":"sl4-eton"},{"id":8600,"code":"SL4","name":"Eton Wick","uppercaseName":"ETON WICK","parentCode":null,"division":"Bracknell Forest","pop":0,"postcode":"SL4","longitude":"-0.62411600","latitude":"51.47660000","googleLocalized":false,"division2":"BRACKNELL FOREST","slugName":"sl4-eton-wick"},{"id":8685,"code":"SN4","name":"Wootton Bassett","uppercaseName":"WOOTTON BASSETT","parentCode":null,"division":"Swindon","pop":0,"postcode":"SN4","longitude":"-1.83974000","latitude":"51.53170000","googleLocalized":false,"division2":"SWINDON","slugName":"sn4-wootton-bassett"},{"id":8806,"code":"SO41","name":"Pennington","uppercaseName":"PENNINGTON","parentCode":null,"division":"New Forest","pop":0,"postcode":"SO41","longitude":"-1.56171000","latitude":"50.75590000","googleLocalized":false,"division2":"NEW FOREST","slugName":"so41-pennington"},{"id":8809,"code":"SO41","name":"Sway","uppercaseName":"SWAY","parentCode":null,"division":"New Forest","pop":0,"postcode":"SO41","longitude":"-1.56171000","latitude":"50.75590000","googleLocalized":false,"division2":"NEW FOREST","slugName":"so41-sway"},{"id":8866,"code":"SR3","name":"Springwell","uppercaseName":"SPRINGWELL","parentCode":null,"division":"Sunderland","pop":0,"postcode":"SR3","longitude":"-1.41649000","latitude":"54.87800000","googleLocalized":false,"division2":"SUNDERLAND","slugName":"sr3-springwell"},{"id":8868,"code":"SR3","name":"Tunstall","uppercaseName":"TUNSTALL","parentCode":null,"division":"Sunderland","pop":0,"postcode":"SR3","longitude":"-1.41649000","latitude":"54.87800000","googleLocalized":false,"division2":"SUNDERLAND","slugName":"sr3-tunstall"},{"id":9142,"code":"TA8","name":"Berrow","uppercaseName":"BERROW","parentCode":null,"division":"Somerset","pop":0,"postcode":"TA8","longitude":"-2.99483000","latitude":"51.24400000","googleLocalized":false,"division2":"SOMERSET","slugName":"ta8-berrow"},{"id":9311,"code":"TQ13","name":"Chudleigh","uppercaseName":"CHUDLEIGH","parentCode":null,"division":"Teignbridge","pop":0,"postcode":"TQ13","longitude":"-3.71248000","latitude":"50.59050000","googleLocalized":false,"division2":"TEIGNBRIDGE","slugName":"tq13-chudleigh"},{"id":9932,"code":"YO11","name":"Cayton","uppercaseName":"CAYTON","parentCode":null,"division":"North Yorkshire","pop":0,"postcode":"YO11","longitude":"-0.39856600","latitude":"54.26940000","googleLocalized":false,"division2":"NORTH YORKSHIRE","slugName":"yo11-cayton"},{"id":9993,"code":"YO41","name":"Full Sutton","uppercaseName":"FULL SUTTON","parentCode":null,"division":"York","pop":0,"postcode":"YO41","longitude":"-0.91077200","latitude":"53.96870000","googleLocalized":false,"division2":"YORK","slugName":"yo41-full-sutton"},{"id":10061,"code":"norwich","name":"Norwich","uppercaseName":"NORWICH","parentCode":null,"division":"Norwich","pop":186682,"postcode":"city","longitude":"1.29736000","latitude":"52.63089000","googleLocalized":true,"division2":"NORWICH","slugName":"city-norwich"},{"id":10027,"code":"manchester","name":"Manchester","uppercaseName":"MANCHESTER","parentCode":null,"division":"Manchester","pop":392819,"postcode":"city","longitude":"-2.24263000","latitude":"53.48076000","googleLocalized":true,"division2":"MANCHESTER","slugName":"city-manchester"},{"id":10062,"code":"southend-on-sea","name":"Southend-on-Sea","uppercaseName":"SOUTHEND-ON-SEA","parentCode":null,"division":"Southend-on-Sea","pop":175547,"postcode":"city","longitude":"0.70771000","latitude":"51.54593000","googleLocalized":true,"division2":"SOUTHEND-ON-SEA","slugName":"city-southend-on-sea"},{"id":10063,"code":"middlesbrough","name":"Middlesbrough","uppercaseName":"MIDDLESBROUGH","parentCode":null,"division":"Middlesbrough","pop":174700,"postcode":"city","longitude":"-1.23496000","latitude":"54.57423000","googleLocalized":true,"division2":"MIDDLESBROUGH","slugName":"city-middlesbrough"},{"id":10065,"code":"sunderland","name":"Sunderland","uppercaseName":"SUNDERLAND","parentCode":null,"division":"Sunderland","pop":174286,"postcode":"city","longitude":"-1.38380000","latitude":"54.90687000","googleLocalized":true,"division2":"SUNDERLAND","slugName":"city-sunderland"},{"id":10050,"code":"portsmouth","name":"Portsmouth","uppercaseName":"PORTSMOUTH","parentCode":null,"division":"Portsmouth","pop":238137,"postcode":"city","longitude":"-1.08333000","latitude":"50.81667000","googleLocalized":true,"division2":"PORTSMOUTH","slugName":"city-portsmouth"},{"id":10066,"code":"milton Keynes","name":"Milton Keynes","uppercaseName":"MILTON KEYNES","parentCode":null,"division":"Milton Keynes","pop":171750,"postcode":"city","longitude":"-0.75942000","latitude":"52.04062000","googleLocalized":true,"division2":"MILTON KEYNES","slugName":"city-milton-keynes"},{"id":10028,"code":"glasgow","name":"Glasgow","uppercaseName":"GLASGOW","parentCode":null,"division":"Glasgow","pop":577869,"postcode":"city","longitude":"-4.25181000","latitude":"55.86424000","googleLocalized":true,"division2":"GLASGOW","slugName":"city-glasgow"},{"id":10051,"code":"brighton","name":"Brighton","uppercaseName":"BRIGHTON","parentCode":null,"division":"Brighton","pop":229700,"postcode":"city","longitude":"-0.12610000","latitude":"50.83516000","googleLocalized":true,"division2":"BRIGHTON","slugName":"city-brighton"},{"id":10053,"code":"westminster","name":"Westminster","uppercaseName":"WESTMINSTER","parentCode":null,"division":"Westminster","pop":218791,"postcode":"city","longitude":"-0.13323000","latitude":"51.50018000","googleLocalized":true,"division2":"WESTMINSTER","slugName":"city-westminster"},{"id":10067,"code":"warrington","name":"Warrington","uppercaseName":"WARRINGTON","parentCode":null,"division":"Warrington","pop":165456,"postcode":"city","longitude":"-2.59695000","latitude":"53.39004000","googleLocalized":true,"division2":"WARRINGTON","slugName":"city-warrington"},{"id":10070,"code":"oxford","name":"Oxford","uppercaseName":"OXFORD","parentCode":null,"division":"Oxford","pop":159994,"postcode":"city","longitude":"-1.25773000","latitude":"51.75202000","googleLocalized":true,"division2":"OXFORD","slugName":"city-oxford"},{"id":10068,"code":"peterborough","name":"Peterborough","uppercaseName":"PETERBOROUGH","parentCode":null,"division":"Peterborough","pop":161707,"postcode":"city","longitude":"-0.24053000","latitude":"52.56950000","googleLocalized":true,"division2":"PETERBOROUGH","slugName":"city-peterborough"},{"id":10071,"code":"york","name":"York","uppercaseName":"YORK","parentCode":null,"division":"York","pop":152841,"postcode":"city","longitude":"-1.08730000","latitude":"53.95997000","googleLocalized":true,"division2":"YORK","slugName":"city-york"},{"id":10073,"code":"blackpool","name":"Blackpool","uppercaseName":"BLACKPOOL","parentCode":null,"division":"Blackpool","pop":147663,"postcode":"city","longitude":"-3.03567000","latitude":"53.81751000","googleLocalized":true,"division2":"BLACKPOOL","slugName":"city-blackpool"},{"id":10074,"code":"cambridge","name":"Cambridge","uppercaseName":"CAMBRIDGE","parentCode":null,"division":"Cambridge","pop":145818,"postcode":"city","longitude":"0.12182000","latitude":"52.20534000","googleLocalized":true,"division2":"CAMBRIDGE","slugName":"city-cambridge"},{"id":10024,"code":"london","name":"London","uppercaseName":"LONDON","parentCode":null,"division":"London","pop":7172091,"postcode":"city","longitude":"-0.12776000","latitude":"51.50735000","googleLocalized":true,"division2":"LONDON","slugName":"city-london"},{"id":2374,"code":"DD1","name":"Dundee","uppercaseName":"DUNDEE","parentCode":null,"division":"Dundee","pop":147285,"postcode":"city","longitude":"-2.97072000","latitude":"56.46202000","googleLocalized":true,"division2":"DUNDEE","slugName":"city-dd1-dundee-city-centre"},{"id":3615,"code":"HD1","name":"Huddersfield","uppercaseName":"HUDDERSFIELD","parentCode":null,"division":"Kirklees","pop":162949,"postcode":"city","longitude":"-1.78503000","latitude":"53.64579000","googleLocalized":true,"division2":"KIRKLEES","slugName":"city-hd1-huddersfield-town-centre"},{"id":7690,"code":"RG1","name":"Reading","uppercaseName":"READING","parentCode":null,"division":"Berkshire","pop":218705,"postcode":"city","longitude":"-0.97813000","latitude":"51.45426000","googleLocalized":true,"division2":"BERKSHIRE","slugName":"city-rg1-reading"},{"id":8581,"code":"SL1","name":"Slough","uppercaseName":"SLOUGH","parentCode":null,"division":"South Buckinghamshire","pop":155298,"postcode":"city","longitude":"-0.59504000","latitude":"51.51054000","googleLocalized":true,"division2":"SOUTH BUCKINGHAMSHIRE","slugName":"city-sl1-slough"},{"id":8707,"code":"swindon","name":"Swindon","uppercaseName":"SWINDON","parentCode":null,"division":"Swindon","pop":182441,"postcode":"city","longitude":"-1.77972000","latitude":"51.55577000","googleLocalized":true,"division2":"SWINDON","slugName":"city-swindon"},{"id":9864,"code":"WV1","name":"Wolverhampton","uppercaseName":"WOLVERHAMPTON CITY CENTRE","parentCode":null,"division":"Wolverhampton","pop":236582,"postcode":"city","longitude":"-2.12882000","latitude":"52.58697000","googleLocalized":true,"division2":"WOLVERHAMPTON","slugName":"city-wv1-wolverhampton-city-centre"},{"id":8356,"code":"SA80","name":"Swansea","uppercaseName":"SWANSEA","parentCode":null,"division":"Swansea","pop":179485,"postcode":"city","longitude":"-3.94365000","latitude":"51.62144000","googleLocalized":true,"division2":"SWANSEA","slugName":"city-sa80-swansea"},{"id":295,"code":"B99","name":"Birmingham","uppercaseName":"BIRMINGHAM","parentCode":null,"division":"Birmingham","pop":970892,"postcode":"city","longitude":"-1.89040000","latitude":"52.48624000","googleLocalized":true,"division2":"BIRMINGHAM","slugName":"city-b99-birmingham"},{"id":541,"code":"BH15","name":"Poole","uppercaseName":"POOLE","parentCode":null,"division":"Poole","pop":154718,"postcode":"city","longitude":"-1.98725000","latitude":"50.71505000","googleLocalized":true,"division2":"POOLE","slugName":"city-poole"}]